{
  "type": "FeatureCollection",
  "features": [
    {
      "type": "Feature",
      "properties": {
        "norad_id": 35616,
        "name": "IRIDIUM 33 DEB",
        "group": "iridium-33-debris",
        "lat": -15.886216742876181,
        "lon": -17.174345853943805,
        "alt_km": 635.3589584669171,
        "timestamp": "2025-12-16T21:38:57.560256+00:00",
        "meta_object_name": "IRIDIUM 33 DEB",
        "meta_object_id": "1997-051QN",
        "meta_epoch": "2025-12-15T10:04:03.799488",
        "meta_mean_motion": 14.81891461,
        "meta_eccentricity": 0.00105912,
        "meta_inclination": 86.3547,
        "meta_ra_of_asc_node": 344.5418,
        "meta_arg_of_pericenter": 153.8991,
        "meta_mean_anomaly": 206.2767,
        "meta_ephemeris_type": 0,
        "meta_classification_type": "U",
        "meta_norad_cat_id": 35616,
        "meta_element_set_no": 999,
        "meta_rev_at_epoch": 87614,
        "meta_bstar": 0.0010652988,
        "meta_mean_motion_dot": 8.463e-05,
        "meta_mean_motion_ddot": 0,
        "tle_line1": "1 35616U 97051QN  25349.41948842  .00008463  00000+0  10653-2 0  9993",
        "tle_line2": "2 35616  86.3547 344.5418 0010591 153.8991 206.2767 14.81891461876146"
      },
      "geometry": {
        "type": "Point",
        "coordinates": [
          -17.174345853943805,
          -15.886216742876181
        ]
      }
    },
    {
      "type": "Feature",
      "properties": {
        "norad_id": 35618,
        "name": "IRIDIUM 33 DEB",
        "group": "iridium-33-debris",
        "lat": 27.688605230227104,
        "lon": -6.390499193557427,
        "alt_km": 697.817847298038,
        "timestamp": "2025-12-16T21:38:57.560266+00:00",
        "meta_object_name": "IRIDIUM 33 DEB",
        "meta_object_id": "1997-051QQ",
        "meta_epoch": "2025-12-13T19:06:39.662496",
        "meta_mean_motion": 14.52305973,
        "meta_eccentricity": 0.00288889,
        "meta_inclination": 86.3427,
        "meta_ra_of_asc_node": 353.0427,
        "meta_arg_of_pericenter": 17.6332,
        "meta_mean_anomaly": 342.5869,
        "meta_ephemeris_type": 0,
        "meta_classification_type": "U",
        "meta_norad_cat_id": 35618,
        "meta_element_set_no": 999,
        "meta_rev_at_epoch": 65409,
        "meta_bstar": 0.0005678553,
        "meta_mean_motion_dot": 2.341e-05,
        "meta_mean_motion_ddot": 0,
        "tle_line1": "1 35618U 97051QQ  25347.79629239  .00002341  00000+0  56786-3 0  9997",
        "tle_line2": "2 35618  86.3427 353.0427 0028888  17.6332 342.5869 14.52305973654095"
      },
      "geometry": {
        "type": "Point",
        "coordinates": [
          -6.390499193557427,
          27.688605230227104
        ]
      }
    },
    {
      "type": "Feature",
      "properties": {
        "norad_id": 35620,
        "name": "IRIDIUM 33 DEB",
        "group": "iridium-33-debris",
        "lat": 23.218112313595476,
        "lon": 34.144415432061166,
        "alt_km": 760.2371409899351,
        "timestamp": "2025-12-16T21:38:57.560276+00:00",
        "meta_object_name": "IRIDIUM 33 DEB",
        "meta_object_id": "1997-051QS",
        "meta_epoch": "2025-12-15T21:31:52.254048",
        "meta_mean_motion": 14.38162606,
        "meta_eccentricity": 0.01401972,
        "meta_inclination": 86.3888,
        "meta_ra_of_asc_node": 216.1206,
        "meta_arg_of_pericenter": 248.5026,
        "meta_mean_anomaly": 110.1177,
        "meta_ephemeris_type": 0,
        "meta_classification_type": "U",
        "meta_norad_cat_id": 35620,
        "meta_element_set_no": 999,
        "meta_rev_at_epoch": 60011,
        "meta_bstar": 0.0034337761,
        "meta_mean_motion_dot": 0.00011705,
        "meta_mean_motion_ddot": 0,
        "tle_line1": "1 35620U 97051QS  25349.89713257  .00011705  00000+0  34338-2 0  9999",
        "tle_line2": "2 35620  86.3888 216.1206 0140197 248.5026 110.1177 14.38162606600119"
      },
      "geometry": {
        "type": "Point",
        "coordinates": [
          34.144415432061166,
          23.218112313595476
        ]
      }
    },
    {
      "type": "Feature",
      "properties": {
        "norad_id": 35622,
        "name": "IRIDIUM 33 DEB",
        "group": "iridium-33-debris",
        "lat": 15.520096653013008,
        "lon": 80.49561462001707,
        "alt_km": 554.8135402035768,
        "timestamp": "2025-12-16T21:38:57.560286+00:00",
        "meta_object_name": "IRIDIUM 33 DEB",
        "meta_object_id": "1997-051QU",
        "meta_epoch": "2025-12-14T12:14:43.972224",
        "meta_mean_motion": 15.04969242,
        "meta_eccentricity": 0.00054886,
        "meta_inclination": 86.2028,
        "meta_ra_of_asc_node": 262.7313,
        "meta_arg_of_pericenter": 323.1514,
        "meta_mean_anomaly": 209.8665,
        "meta_ephemeris_type": 0,
        "meta_classification_type": "U",
        "meta_norad_cat_id": 35622,
        "meta_element_set_no": 999,
        "meta_rev_at_epoch": 87386,
        "meta_bstar": 0.0048535985,
        "meta_mean_motion_dot": 0.00069411,
        "meta_mean_motion_ddot": 0,
        "tle_line1": "1 35622U 97051QU  25348.51023116  .00069411  00000+0  48536-2 0  9999",
        "tle_line2": "2 35622  86.2028 262.7313 0005488 323.1514 209.8665 15.04969242873864"
      },
      "geometry": {
        "type": "Point",
        "coordinates": [
          80.49561462001707,
          15.520096653013008
        ]
      }
    },
    {
      "type": "Feature",
      "properties": {
        "norad_id": 35628,
        "name": "IRIDIUM 33 DEB",
        "group": "iridium-33-debris",
        "lat": 25.864810667850335,
        "lon": -174.5502578190237,
        "alt_km": 674.8847280551827,
        "timestamp": "2025-12-16T21:38:57.560296+00:00",
        "meta_object_name": "IRIDIUM 33 DEB",
        "meta_object_id": "1997-051RA",
        "meta_epoch": "2025-12-16T07:51:32.046336",
        "meta_mean_motion": 14.67635018,
        "meta_eccentricity": 0.00100441,
        "meta_inclination": 86.3573,
        "meta_ra_of_asc_node": 7.4758,
        "meta_arg_of_pericenter": 329.6051,
        "meta_mean_anomaly": 30.458,
        "meta_ephemeris_type": 0,
        "meta_classification_type": "U",
        "meta_norad_cat_id": 35628,
        "meta_element_set_no": 999,
        "meta_rev_at_epoch": 86499,
        "meta_bstar": 0.00094948025,
        "meta_mean_motion_dot": 5.421e-05,
        "meta_mean_motion_ddot": 0,
        "tle_line1": "1 35628U 97051RA  25350.32745424  .00005421  00000+0  94948-3 0  9990",
        "tle_line2": "2 35628  86.3573   7.4758 0010044 329.6051  30.4580 14.67635018864991"
      },
      "geometry": {
        "type": "Point",
        "coordinates": [
          -174.5502578190237,
          25.864810667850335
        ]
      }
    },
    {
      "type": "Feature",
      "properties": {
        "norad_id": 35631,
        "name": "IRIDIUM 33 DEB",
        "group": "iridium-33-debris",
        "lat": 73.21860445304378,
        "lon": -172.97639672658198,
        "alt_km": 713.8857196063673,
        "timestamp": "2025-12-16T21:38:57.560306+00:00",
        "meta_object_name": "IRIDIUM 33 DEB",
        "meta_object_id": "1997-051RD",
        "meta_epoch": "2025-12-15T08:42:47.316960",
        "meta_mean_motion": 14.47318877,
        "meta_eccentricity": 0.00191154,
        "meta_inclination": 86.3676,
        "meta_ra_of_asc_node": 19.8463,
        "meta_arg_of_pericenter": 110.0976,
        "meta_mean_anomaly": 262.6147,
        "meta_ephemeris_type": 0,
        "meta_classification_type": "U",
        "meta_norad_cat_id": 35631,
        "meta_element_set_no": 999,
        "meta_rev_at_epoch": 87235,
        "meta_bstar": 0.00030975227,
        "meta_mean_motion_dot": 1.156e-05,
        "meta_mean_motion_ddot": 0,
        "tle_line1": "1 35631U 97051RD  25349.36304765  .00001156  00000+0  30975-3 0  9996",
        "tle_line2": "2 35631  86.3676  19.8463 0019115 110.0976 262.6147 14.47318877872351"
      },
      "geometry": {
        "type": "Point",
        "coordinates": [
          -172.97639672658198,
          73.21860445304378
        ]
      }
    },
    {
      "type": "Feature",
      "properties": {
        "norad_id": 35680,
        "name": "IRIDIUM 33 DEB",
        "group": "iridium-33-debris",
        "lat": 43.87495854577487,
        "lon": 23.437980885612692,
        "alt_km": 899.1874767611807,
        "timestamp": "2025-12-16T21:38:57.560316+00:00",
        "meta_object_name": "IRIDIUM 33 DEB",
        "meta_object_id": "1997-051RJ",
        "meta_epoch": "2025-12-14T08:38:54.081024",
        "meta_mean_motion": 14.20954301,
        "meta_eccentricity": 0.01504449,
        "meta_inclination": 86.1029,
        "meta_ra_of_asc_node": 20.8049,
        "meta_arg_of_pericenter": 273.3107,
        "meta_mean_anomaly": 95.5624,
        "meta_ephemeris_type": 0,
        "meta_classification_type": "U",
        "meta_norad_cat_id": 35680,
        "meta_element_set_no": 999,
        "meta_rev_at_epoch": 60724,
        "meta_bstar": 0.0038932879,
        "meta_mean_motion_dot": 9.473e-05,
        "meta_mean_motion_ddot": 0,
        "tle_line1": "1 35680U 97051RJ  25348.36034816  .00009473  00000+0  38933-2 0  9997",
        "tle_line2": "2 35680  86.1029  20.8049 0150444 273.3107  95.5624 14.20954301607243"
      },
      "geometry": {
        "type": "Point",
        "coordinates": [
          23.437980885612692,
          43.87495854577487
        ]
      }
    }
  ]
}